{"type": "FeatureCollection", "features": [ {"type": "Feature", "properties": {"norad_id": 58662, "name": "TIANMU-1 21", "group": "weather", "lat": -30.43367025081223, "lon": -71.25757420087001, "alt_km": 472.0009820447158, "timestamp": "2025-12-25T16:53:14.297095+00:00", "meta": {"OBJECT_NAME": "TIANMU-1 21", "OBJECT_ID": "2023-208C", "EPOCH": "2025-12-25T06:33:50.012928", "MEAN_MOTION": 15.31816484, "ECCENTRICITY": 0.00064823, "INCLINATION": 97.4376, "RA_OF_ASC_NODE": 112.7123, "ARG_OF_PERICENTER": 208.5271, "MEAN_ANOMALY": 151.5616, "EPHEMERIS_TYPE": 0, "CLASSIFICATION_TYPE": "U", "NORAD_CAT_ID": 58662, "ELEMENT_SET_NO": 999, "REV_AT_EPOCH": 11091, "BSTAR": 0.0004030377, "MEAN_MOTION_DOT": 0.00012317, "MEAN_MOTION_DDOT": 0}, "tle": {"line1": "1 58662U 23208C   25359.27349552  .00012317  00000+0  40304-3 0  9990", "line2": "2 58662  97.4376 112.7123 0006482 208.5271 151.5616 15.31816484110915"}}, "geometry": {"type": "Point", "coordinates": [-71.25757420087001, -30.43367025081223]}}, {"type": "Feature", "properties": {"norad_id": 58663, "name": "TIANMU-1 22", "group": "weather", "lat": -51.80729401657423, "lon": 120.32907198882744, "alt_km": 489.1868053190701, "timestamp": "2025-12-25T16:53:14.297113+00:00", "meta": {"OBJECT_NAME": "TIANMU-1 22", "OBJECT_ID": "2023-208D", "EPOCH": "2025-12-25T06:06:47.921184", "MEAN_MOTION": 15.27812815, "ECCENTRICITY": 0.00029946, "INCLINATION": 97.4382, "RA_OF_ASC_NODE": 110.322, "ARG_OF_PERICENTER": 223.1526, "MEAN_ANOMALY": 136.9479, "EPHEMERIS_TYPE": 0, "CLASSIFICATION_TYPE": "U", "NORAD_CAT_ID": 58663, "ELEMENT_SET_NO": 999, "REV_AT_EPOCH": 11074, "BSTAR": 0.00035850474, "MEAN_MOTION_DOT": 9.667e-05, "MEAN_MOTION_DDOT": 0}, "tle": {"line1": "1 58663U 23208D   25359.25472131  .00009667  00000+0  35850-3 0  9993", "line2": "2 58663  97.4382 110.3220 0002994 223.1526 136.9479 15.27812815110749"}}, "geometry": {"type": "Point", "coordinates": [120.32907198882744, -51.80729401657423]}}, {"type": "Feature", "properties": {"norad_id": 58700, "name": "TIANMU-1 15", "group": "weather", "lat": -71.21792320181281, "lon": -156.20338080604006, "alt_km": 496.7929759603685, "timestamp": "2025-12-25T16:53:14.297129+00:00", "meta": {"OBJECT_NAME": "TIANMU-1 15", "OBJECT_ID": "2024-004A", "EPOCH": "2025-12-25T07:45:16.284096", "MEAN_MOTION": 15.24571456, "ECCENTRICITY": 0.00060835, "INCLINATION": 97.4629, "RA_OF_ASC_NODE": 180.7455, "ARG_OF_PERICENTER": 236.6358, "MEAN_ANOMALY": 123.4298, "EPHEMERIS_TYPE": 0, "CLASSIFICATION_TYPE": "U", "NORAD_CAT_ID": 58700, "ELEMENT_SET_NO": 999, "REV_AT_EPOCH": 10926, "BSTAR": 0.00031864577, "MEAN_MOTION_DOT": 7.783e-05, "MEAN_MOTION_DDOT": 0}, "tle": {"line1": "1 58700U 24004A   25359.32310514  .00007783  00000+0  31865-3 0  9993", "line2": "2 58700  97.4629 180.7455 0006083 236.6358 123.4298 15.24571456109266"}}, "geometry": {"type": "Point", "coordinates": [-156.20338080604006, -71.21792320181281]}}, {"type": "Feature", "properties": {"norad_id": 58701, "name": "TIANMU-1 16", "group": "weather", "lat": 9.87284886315076, "lon": 179.1967570312218, "alt_km": 495.75371408412866, "timestamp": "2025-12-25T16:53:14.297145+00:00", "meta": {"OBJECT_NAME": "TIANMU-1 16", "OBJECT_ID": "2024-004B", "EPOCH": "2025-12-25T07:23:33.296928", "MEAN_MOTION": 15.24599128, "ECCENTRICITY": 0.00044209, "INCLINATION": 97.4569, "RA_OF_ASC_NODE": 180.1092, "ARG_OF_PERICENTER": 238.639, "MEAN_ANOMALY": 121.4415, "EPHEMERIS_TYPE": 0, "CLASSIFICATION_TYPE": "U", "NORAD_CAT_ID": 58701, "ELEMENT_SET_NO": 999, "REV_AT_EPOCH": 10926, "BSTAR": 0.00031186814, "MEAN_MOTION_DOT": 7.621e-05, "MEAN_MOTION_DDOT": 0}, "tle": {"line1": "1 58701U 24004B   25359.30802427  .00007621  00000+0  31187-3 0  9999", "line2": "2 58701  97.4569 180.1092 0004420 238.6390 121.4415 15.24599128109267"}}, "geometry": {"type": "Point", "coordinates": [179.1967570312218, 9.87284886315076]}}, {"type": "Feature", "properties": {"norad_id": 58702, "name": "TIANMU-1 17", "group": "weather", "lat": 80.07202958516763, "lon": 49.39343637803837, "alt_km": 486.3921137501602, "timestamp": "2025-12-25T16:53:14.297161+00:00", "meta": {"OBJECT_NAME": "TIANMU-1 17", "OBJECT_ID": "2024-004C", "EPOCH": "2025-12-25T07:00:51.309792", "MEAN_MOTION": 15.24641675, "ECCENTRICITY": 0.00035801, "INCLINATION": 97.4602, "RA_OF_ASC_NODE": 180.5099, "ARG_OF_PERICENTER": 239.5803, "MEAN_ANOMALY": 120.5081, "EPHEMERIS_TYPE": 0, "CLASSIFICATION_TYPE": "U", "NORAD_CAT_ID": 58702, "ELEMENT_SET_NO": 999, "REV_AT_EPOCH": 10925, "BSTAR": 0.00029028902, "MEAN_MOTION_DOT": 7.096e-05, "MEAN_MOTION_DDOT": 0}, "tle": {"line1": "1 58702U 24004C   25359.29226053  .00007096  00000+0  29029-3 0  9991", "line2": "2 58702  97.4602 180.5099 0003580 239.5803 120.5081 15.24641675109255"}}, "geometry": {"type": "Point", "coordinates": [49.39343637803837, 80.07202958516763]}}, {"type": "Feature", "properties": {"norad_id": 58703, "name": "TIANMU-1 18", "group": "weather", "lat": -7.433370636737581, "lon": 0.1377974854179434, "alt_km": 494.5207450255821, "timestamp": "2025-12-25T16:53:14.297177+00:00", "meta": {"OBJECT_NAME": "TIANMU-1 18", "OBJECT_ID": "2024-004D", "EPOCH": "2025-12-25T06:37:00.416064", "MEAN_MOTION": 15.24623884, "ECCENTRICITY": 0.00029766, "INCLINATION": 97.462, "RA_OF_ASC_NODE": 180.6914, "ARG_OF_PERICENTER": 236.2553, "MEAN_ANOMALY": 123.8401, "EPHEMERIS_TYPE": 0, "CLASSIFICATION_TYPE": "U", "NORAD_CAT_ID": 58703, "ELEMENT_SET_NO": 999, "REV_AT_EPOCH": 10925, "BSTAR": 0.00029067994, "MEAN_MOTION_DOT": 7.102e-05, "MEAN_MOTION_DDOT": 0}, "tle": {"line1": "1 58703U 24004D   25359.27569926  .00007102  00000+0  29068-3 0  9990", "line2": "2 58703  97.4620 180.6914 0002976 236.2553 123.8401 15.24623884109251"}}, "geometry": {"type": "Point", "coordinates": [0.1377974854179434, -7.433370636737581]}}, {"type": "Feature", "properties": {"norad_id": 58990, "name": "INSAT-3DS", "group": "weather", "lat": -0.013059630151416078, "lon": 69.87752359885545, "alt_km": 35791.053283334644, "timestamp": "2025-12-25T16:53:14.297195+00:00", "meta": {"OBJECT_NAME": "INSAT-3DS", "OBJECT_ID": "2024-033A", "EPOCH": "2025-12-24T23:45:39.809376", "MEAN_MOTION": 1.00271318, "ECCENTRICITY": 0.00012552, "INCLINATION": 0.0601, "RA_OF_ASC_NODE": 99.644, "ARG_OF_PERICENTER": 175.3991, "MEAN_ANOMALY": 257.2391, "EPHEMERIS_TYPE": 0, "CLASSIFICATION_TYPE": "U", "NORAD_CAT_ID": 58990, "ELEMENT_SET_NO": 999, "REV_AT_EPOCH": 4532, "BSTAR": 0, "MEAN_MOTION_DOT": -1.35e-06, "MEAN_MOTION_DDOT": 0}, "tle": {"line1": "1 58990U 24033A   25358.99004409 -.00000135  00000+0  00000+0 0  9999", "line2": "2 58990   0.0601  99.6440 0001255 175.3991 257.2391  1.00271318 45326"}}, "geometry": {"type": "Point", "coordinates": [69.87752359885545, -0.013059630151416078]}}, {"type": "Feature", "properties": {"norad_id": 59051, "name": "METEOR-M2 4", "group": "weather", "lat": -74.37174899859572, "lon": -10.496998035718605, "alt_km": 820.8348424214937, "timestamp": "2025-12-25T16:53:14.297212+00:00", "meta": {"OBJECT_NAME": "METEOR-M2 4", "OBJECT_ID": "2024-039A", "EPOCH": "2025-12-25T07:07:07.505760", "MEAN_MOTION": 14.22403181, "ECCENTRICITY": 0.00063839, "INCLINATION": 98.6785, "RA_OF_ASC_NODE": 316.0096, "ARG_OF_PERICENTER": 320.7304, "MEAN_ANOMALY": 39.341, "EPHEMERIS_TYPE": 0, "CLASSIFICATION_TYPE": "U", "NORAD_CAT_ID": 59051, "ELEMENT_SET_NO": 999, "REV_AT_EPOCH": 9454, "BSTAR": 4.060944e-05, "MEAN_MOTION_DOT": 4.7e-07, "MEAN_MOTION_DDOT": 0}, "tle": {"line1": "1 59051U 24039A   25359.29661465  .00000047  00000+0  40609-4 0  9994", "line2": "2 59051  98.6785 316.0096 0006383 320.7304  39.3410 14.22403181 94547"}}, "geometry": {"type": "Point", "coordinates": [-10.496998035718605, -74.37174899859572]}}, {"type": "Feature", "properties": {"norad_id": 60133, "name": "GOES 19", "group": "weather", "lat": 0.004898693389913306, "lon": -87.43106001718317, "alt_km": 35783.39859657413, "timestamp": "2025-12-25T16:53:14.297230+00:00", "meta": {"OBJECT_NAME": "GOES 19", "OBJECT_ID": "2024-119A", "EPOCH": "2025-12-25T04:31:42.625056", "MEAN_MOTION": 1.0027105, "ECCENTRICITY": 0.00010365, "INCLINATION": 0.0152, "RA_OF_ASC_NODE": 183.0311, "ARG_OF_PERICENTER": 137.5029, "MEAN_ANOMALY": 126.1624, "EPHEMERIS_TYPE": 0, "CLASSIFICATION_TYPE": "U", "NORAD_CAT_ID": 60133, "ELEMENT_SET_NO": 999, "REV_AT_EPOCH": 521, "BSTAR": 0, "MEAN_MOTION_DOT": -2.27e-06, "MEAN_MOTION_DDOT": 0}, "tle": {"line1": "1 60133U 24119A   25359.18868779 -.00000227  00000+0  00000+0 0  9998", "line2": "2 60133   0.0152 183.0311 0001036 137.5029 126.1624  1.00271050  5213"}}, "geometry": {"type": "Point", "coordinates": [-87.43106001718317, 0.004898693389913306]}}, {"type": "Feature", "properties": {"norad_id": 65815, "name": "FENGYUN 3H", "group": "weather", "lat": 44.924322007550565, "lon": -69.72970901182586, "alt_km": 821.4877375810274, "timestamp": "2025-12-25T16:53:14.297247+00:00", "meta": {"OBJECT_NAME": "FENGYUN 3H", "OBJECT_ID": "2025-219A", "EPOCH": "2025-12-25T06:31:34.001184", "MEAN_MOTION": 14.19907949, "ECCENTRICITY": 8.479e-05, "INCLINATION": 98.6602, "RA_OF_ASC_NODE": 298.5911, "ARG_OF_PERICENTER": 108.8403, "MEAN_ANOMALY": 251.2866, "EPHEMERIS_TYPE": 0, "CLASSIFICATION_TYPE": "U", "NORAD_CAT_ID": 65815, "ELEMENT_SET_NO": 999, "REV_AT_EPOCH": 1270, "BSTAR": 6.598625e-05, "MEAN_MOTION_DOT": 9.7e-07, "MEAN_MOTION_DDOT": 0}, "tle": {"line1": "1 65815U 25219A   25359.27192131  .00000097  00000+0  65986-4 0  9997", "line2": "2 65815  98.6602 298.5911 0000847 108.8403 251.2866 14.19907949 12709"}}, "geometry": {"type": "Point", "coordinates": [-69.72970901182586, 44.924322007550565]}}]}